{
  "meta": {
    "note": "Straßen an reale OSM-Positionen Hannover-Zentrum angeglichen. Gebäude synthetisch. Vollimport: ./scripts/fetch_hannover_osm.sh",
    "origin_lat": 52.3759,
    "origin_lon": 9.7392,
    "source": "openstreetmap-aligned",
    "road_count": 25,
    "poi_count": 16,
    "building_count": 91,
    "area_count": 4
  },
  "roads": {
    "type": "FeatureCollection",
    "features": [
      {
        "type": "Feature",
        "properties": {
          "name": "Bahnhofstraße",
          "kind": "primary"
        },
        "geometry": {
          "type": "LineString",
          "coordinates": [
            [
              9.74105,
              52.3771
            ],
            [
              9.7407,
              52.3766
            ],
            [
              9.74035,
              52.3761
            ],
            [
              9.73995,
              52.3755
            ],
            [
              9.73955,
              52.375
            ],
            [
              9.7392,
              52.37455
            ]
          ]
        }
      },
      {
        "type": "Feature",
        "properties": {
          "name": "Kurt-Schumacher-Straße",
          "kind": "primary"
        },
        "geometry": {
          "type": "LineString",
          "coordinates": [
            [
              9.741,
              52.377
            ],
            [
              9.7402,
              52.3774
            ],
            [
              9.7392,
              52.3779
            ],
            [
              9.7381,
              52.3784
            ],
            [
              9.7369,
              52.3789
            ],
            [
              9.7357,
              52.3794
            ]
          ]
        }
      },
      {
        "type": "Feature",
        "properties": {
          "name": "Ernst-August-Platz",
          "kind": "secondary"
        },
        "geometry": {
          "type": "LineString",
          "coordinates": [
            [
              9.7404,
              52.3764
            ],
            [
              9.741,
              52.3765
            ],
            [
              9.7414,
              52.3762
            ],
            [
              9.7412,
              52.3758
            ],
            [
              9.7405,
              52.3757
            ],
            [
              9.7402,
              52.376
            ],
            [
              9.7404,
              52.3764
            ]
          ]
        }
      },
      {
        "type": "Feature",
        "properties": {
          "name": "Georgstraße",
          "kind": "primary"
        },
        "geometry": {
          "type": "LineString",
          "coordinates": [
            [
              9.7392,
              52.37455
            ],
            [
              9.7384,
              52.37435
            ],
            [
              9.7375,
              52.3741
            ],
            [
              9.7365,
              52.3738
            ],
            [
              9.7354,
              52.3735
            ],
            [
              9.7342,
              52.3732
            ],
            [
              9.733,
              52.373
            ],
            [
              9.7318,
              52.3732
            ]
          ]
        }
      },
      {
        "type": "Feature",
        "properties": {
          "name": "Karmarschstraße",
          "kind": "secondary"
        },
        "geometry": {
          "type": "LineString",
          "coordinates": [
            [
              9.7392,
              52.37455
            ],
            [
              9.7397,
              52.374
            ],
            [
              9.7402,
              52.3734
            ],
            [
              9.7407,
              52.3727
            ],
            [
              9.7412,
              52.3719
            ],
            [
              9.7416,
              52.371
            ],
            [
              9.742,
              52.3702
            ],
            [
              9.7425,
              52.3695
            ]
          ]
        }
      },
      {
        "type": "Feature",
        "properties": {
          "name": "Rathenaustraße",
          "kind": "secondary"
        },
        "geometry": {
          "type": "LineString",
          "coordinates": [
            [
              9.7342,
              52.3732
            ],
            [
              9.7352,
              52.3725
            ],
            [
              9.7362,
              52.3717
            ],
            [
              9.7372,
              52.3709
            ],
            [
              9.7382,
              52.3703
            ],
            [
              9.7392,
              52.3698
            ],
            [
              9.7405,
              52.3695
            ]
          ]
        }
      },
      {
        "type": "Feature",
        "properties": {
          "name": "Friedrichswall",
          "kind": "primary"
        },
        "geometry": {
          "type": "LineString",
          "coordinates": [
            [
              9.7405,
              52.3695
            ],
            [
              9.7392,
              52.3692
            ],
            [
              9.7378,
              52.3686
            ],
            [
              9.7372,
              52.3678
            ],
            [
              9.737,
              52.3673
            ],
            [
              9.7368,
              52.3665
            ],
            [
              9.7366,
              52.3655
            ]
          ]
        }
      },
      {
        "type": "Feature",
        "properties": {
          "name": "Marienstraße",
          "kind": "secondary"
        },
        "geometry": {
          "type": "LineString",
          "coordinates": [
            [
              9.7366,
              52.3655
            ],
            [
              9.7364,
              52.3642
            ],
            [
              9.7361,
              52.3628
            ],
            [
              9.7358,
              52.3615
            ],
            [
              9.7355,
              52.3605
            ]
          ]
        }
      },
      {
        "type": "Feature",
        "properties": {
          "name": "Arthur-Menge-Ufer",
          "kind": "tertiary"
        },
        "geometry": {
          "type": "LineString",
          "coordinates": [
            [
              9.7355,
              52.3605
            ],
            [
              9.734,
              52.3602
            ],
            [
              9.7325,
              52.3597
            ],
            [
              9.731,
              52.3592
            ],
            [
              9.7295,
              52.3585
            ]
          ]
        }
      },
      {
        "type": "Feature",
        "properties": {
          "name": "Königstraße",
          "kind": "secondary"
        },
        "geometry": {
          "type": "LineString",
          "coordinates": [
            [
              9.7425,
              52.3695
            ],
            [
              9.7438,
              52.3697
            ],
            [
              9.7452,
              52.3699
            ],
            [
              9.7465,
              52.3701
            ],
            [
              9.7478,
              52.3704
            ]
          ]
        }
      },
      {
        "type": "Feature",
        "properties": {
          "name": "Hildesheimer Straße",
          "kind": "primary"
        },
        "geometry": {
          "type": "LineString",
          "coordinates": [
            [
              9.7425,
              52.3695
            ],
            [
              9.7432,
              52.3682
            ],
            [
              9.7438,
              52.3668
            ],
            [
              9.7444,
              52.3654
            ],
            [
              9.745,
              52.364
            ]
          ]
        }
      },
      {
        "type": "Feature",
        "properties": {
          "name": "Lister Meile",
          "kind": "primary"
        },
        "geometry": {
          "type": "LineString",
          "coordinates": [
            [
              9.7392,
              52.37455
            ],
            [
              9.74,
              52.3754
            ],
            [
              9.7409,
              52.3764
            ],
            [
              9.7418,
              52.3774
            ],
            [
              9.7428,
              52.3785
            ],
            [
              9.7439,
              52.3797
            ],
            [
              9.7452,
              52.381
            ],
            [
              9.7465,
              52.3823
            ],
            [
              9.7478,
              52.3837
            ]
          ]
        }
      },
      {
        "type": "Feature",
        "properties": {
          "name": "Podbielskistraße",
          "kind": "secondary"
        },
        "geometry": {
          "type": "LineString",
          "coordinates": [
            [
              9.7478,
              52.3837
            ],
            [
              9.75,
              52.3834
            ],
            [
              9.7525,
              52.3829
            ],
            [
              9.755,
              52.3823
            ],
            [
              9.7575,
              52.3816
            ],
            [
              9.76,
              52.381
            ]
          ]
        }
      },
      {
        "type": "Feature",
        "properties": {
          "name": "Hamburger Allee",
          "kind": "secondary"
        },
        "geometry": {
          "type": "LineString",
          "coordinates": [
            [
              9.741,
              52.377
            ],
            [
              9.7425,
              52.3775
            ],
            [
              9.7442,
              52.3782
            ],
            [
              9.7458,
              52.3789
            ],
            [
              9.7475,
              52.3797
            ]
          ]
        }
      },
      {
        "type": "Feature",
        "properties": {
          "name": "Schillerstraße",
          "kind": "secondary"
        },
        "geometry": {
          "type": "LineString",
          "coordinates": [
            [
              9.7392,
              52.37455
            ],
            [
              9.7405,
              52.3752
            ],
            [
              9.7419,
              52.3759
            ],
            [
              9.7434,
              52.3766
            ],
            [
              9.745,
              52.3773
            ]
          ]
        }
      },
      {
        "type": "Feature",
        "properties": {
          "name": "Goethestraße",
          "kind": "tertiary"
        },
        "geometry": {
          "type": "LineString",
          "coordinates": [
            [
              9.7392,
              52.37455
            ],
            [
              9.7408,
              52.3743
            ],
            [
              9.7425,
              52.374
            ],
            [
              9.7442,
              52.3738
            ],
            [
              9.746,
              52.3736
            ],
            [
              9.7478,
              52.3735
            ]
          ]
        }
      },
      {
        "type": "Feature",
        "properties": {
          "name": "Osterstraße",
          "kind": "tertiary"
        },
        "geometry": {
          "type": "LineString",
          "coordinates": [
            [
              9.7348,
              52.3734
            ],
            [
              9.7355,
              52.3735
            ],
            [
              9.7363,
              52.3734
            ],
            [
              9.737,
              52.3732
            ],
            [
              9.7376,
              52.3729
            ]
          ]
        }
      },
      {
        "type": "Feature",
        "properties": {
          "name": "Theaterstraße",
          "kind": "tertiary"
        },
        "geometry": {
          "type": "LineString",
          "coordinates": [
            [
              9.7418,
              52.3739
            ],
            [
              9.7414,
              52.37385
            ],
            [
              9.7409,
              52.3738
            ],
            [
              9.7404,
              52.37375
            ]
          ]
        }
      },
      {
        "type": "Feature",
        "properties": {
          "name": "Celler Straße",
          "kind": "secondary"
        },
        "geometry": {
          "type": "LineString",
          "coordinates": [
            [
              9.7475,
              52.3797
            ],
            [
              9.7488,
              52.381
            ],
            [
              9.7502,
              52.3824
            ],
            [
              9.7516,
              52.3838
            ],
            [
              9.753,
              52.3852
            ]
          ]
        }
      },
      {
        "type": "Feature",
        "properties": {
          "name": "Calenberger Straße",
          "kind": "secondary"
        },
        "geometry": {
          "type": "LineString",
          "coordinates": [
            [
              9.733,
              52.373
            ],
            [
              9.7318,
              52.3724
            ],
            [
              9.7305,
              52.3717
            ],
            [
              9.7292,
              52.371
            ],
            [
              9.728,
              52.3703
            ]
          ]
        }
      },
      {
        "type": "Feature",
        "properties": {
          "name": "Leinstraße",
          "kind": "tertiary"
        },
        "geometry": {
          "type": "LineString",
          "coordinates": [
            [
              9.733,
              52.373
            ],
            [
              9.7335,
              52.3724
            ],
            [
              9.734,
              52.3718
            ],
            [
              9.7345,
              52.3712
            ],
            [
              9.735,
              52.3706
            ]
          ]
        }
      },
      {
        "type": "Feature",
        "properties": {
          "name": "Sophienstraße",
          "kind": "tertiary"
        },
        "geometry": {
          "type": "LineString",
          "coordinates": [
            [
              9.7417,
              52.3727
            ],
            [
              9.7425,
              52.37265
            ],
            [
              9.7433,
              52.3726
            ],
            [
              9.7441,
              52.37255
            ]
          ]
        }
      },
      {
        "type": "Feature",
        "properties": {
          "name": "Baringstraße",
          "kind": "tertiary"
        },
        "geometry": {
          "type": "LineString",
          "coordinates": [
            [
              9.7392,
              52.37055
            ],
            [
              9.74,
              52.3707
            ],
            [
              9.7408,
              52.3709
            ],
            [
              9.7414,
              52.3711
            ]
          ]
        }
      },
      {
        "type": "Feature",
        "properties": {
          "name": "Andreaestraße",
          "kind": "tertiary"
        },
        "geometry": {
          "type": "LineString",
          "coordinates": [
            [
              9.737,
              52.3762
            ],
            [
              9.7371,
              52.3759
            ],
            [
              9.73705,
              52.3756
            ]
          ]
        }
      },
      {
        "type": "Feature",
        "properties": {
          "name": "Aegidientorplatz",
          "kind": "secondary"
        },
        "geometry": {
          "type": "LineString",
          "coordinates": [
            [
              9.7425,
              52.3695
            ],
            [
              9.7432,
              52.3691
            ],
            [
              9.7436,
              52.3687
            ],
            [
              9.7432,
              52.3684
            ],
            [
              9.7424,
              52.3686
            ],
            [
              9.742,
              52.3691
            ],
            [
              9.7425,
              52.3695
            ]
          ]
        }
      }
    ]
  },
  "pois": {
    "type": "FeatureCollection",
    "features": [
      {
        "type": "Feature",
        "properties": {
          "name": "Hauptbahnhof",
          "category": "transit"
        },
        "geometry": {
          "type": "Point",
          "coordinates": [
            9.741,
            52.3769
          ]
        }
      },
      {
        "type": "Feature",
        "properties": {
          "name": "Kröpcke",
          "category": "landmark"
        },
        "geometry": {
          "type": "Point",
          "coordinates": [
            9.7389,
            52.3745
          ]
        }
      },
      {
        "type": "Feature",
        "properties": {
          "name": "Neues Rathaus",
          "category": "landmark"
        },
        "geometry": {
          "type": "Point",
          "coordinates": [
            9.737,
            52.3673
          ]
        }
      },
      {
        "type": "Feature",
        "properties": {
          "name": "Maschsee",
          "category": "park"
        },
        "geometry": {
          "type": "Point",
          "coordinates": [
            9.7355,
            52.3608
          ]
        }
      },
      {
        "type": "Feature",
        "properties": {
          "name": "Eilenriede",
          "category": "park"
        },
        "geometry": {
          "type": "Point",
          "coordinates": [
            9.7601,
            52.3811
          ]
        }
      },
      {
        "type": "Feature",
        "properties": {
          "name": "Lister Meile",
          "category": "shopping"
        },
        "geometry": {
          "type": "Point",
          "coordinates": [
            9.7477,
            52.3838
          ]
        }
      },
      {
        "type": "Feature",
        "properties": {
          "name": "Steintor",
          "category": "nightlife"
        },
        "geometry": {
          "type": "Point",
          "coordinates": [
            9.732,
            52.3755
          ]
        }
      },
      {
        "type": "Feature",
        "properties": {
          "name": "Aegidientorplatz",
          "category": "transit"
        },
        "geometry": {
          "type": "Point",
          "coordinates": [
            9.7425,
            52.3695
          ]
        }
      },
      {
        "type": "Feature",
        "properties": {
          "name": "Cafe am Kröpcke",
          "category": "cafe"
        },
        "geometry": {
          "type": "Point",
          "coordinates": [
            9.7394,
            52.3744
          ]
        }
      },
      {
        "type": "Feature",
        "properties": {
          "name": "Tankstelle Hamburger Allee",
          "category": "fuel"
        },
        "geometry": {
          "type": "Point",
          "coordinates": [
            9.744,
            52.378
          ]
        }
      },
      {
        "type": "Feature",
        "properties": {
          "name": "Supermarkt List",
          "category": "shop"
        },
        "geometry": {
          "type": "Point",
          "coordinates": [
            9.75,
            52.382
          ]
        }
      },
      {
        "type": "Feature",
        "properties": {
          "name": "Opernhaus",
          "category": "landmark"
        },
        "geometry": {
          "type": "Point",
          "coordinates": [
            9.7408,
            52.3732
          ]
        }
      },
      {
        "type": "Feature",
        "properties": {
          "name": "Markthalle",
          "category": "shopping"
        },
        "geometry": {
          "type": "Point",
          "coordinates": [
            9.7365,
            52.3728
          ]
        }
      },
      {
        "type": "Feature",
        "properties": {
          "name": "Ernst-August-Platz",
          "category": "landmark"
        },
        "geometry": {
          "type": "Point",
          "coordinates": [
            9.7406,
            52.3763
          ]
        }
      },
      {
        "type": "Feature",
        "properties": {
          "name": "Leineschloss",
          "category": "landmark"
        },
        "geometry": {
          "type": "Point",
          "coordinates": [
            9.7338,
            52.3705
          ]
        }
      },
      {
        "type": "Feature",
        "properties": {
          "name": "MHH-Zufahrt",
          "category": "hospital"
        },
        "geometry": {
          "type": "Point",
          "coordinates": [
            9.7601,
            52.386
          ]
        }
      }
    ]
  },
  "buildings": {
    "type": "FeatureCollection",
    "features": [
      {
        "type": "Feature",
        "properties": {
          "id": "b1",
          "kind": "building"
        },
        "geometry": {
          "type": "Polygon",
          "coordinates": [
            [
              [
                9.739750753145604,
                52.376000731355845
              ],
              [
                9.739634609382758,
                52.37582651571158
              ],
              [
                9.739796909201292,
                52.37578619136565
              ],
              [
                9.739913052964138,
                52.37596040700991
              ],
              [
                9.739750753145604,
                52.376000731355845
              ]
            ]
          ]
        }
      },
      {
        "type": "Feature",
        "properties": {
          "id": "b2",
          "kind": "building"
        },
        "geometry": {
          "type": "Polygon",
          "coordinates": [
            [
              [
                9.739177763333917,
                52.375500492380425
              ],
              [
                9.739074566812658,
                52.375371496728846
              ],
              [
                9.739258383965762,
                52.3753166921835
              ],
              [
                9.73936158048702,
                52.37544568783508
              ],
              [
                9.739177763333917,
                52.375500492380425
              ]
            ]
          ]
        }
      },
      {
        "type": "Feature",
        "properties": {
          "id": "b3",
          "kind": "building"
        },
        "geometry": {
          "type": "Polygon",
          "coordinates": [
            [
              [
                9.738995588522368,
                52.375022883390905
              ],
              [
                9.73882053520929,
                52.37479781484552
              ],
              [
                9.739016798790285,
                52.37474092486229
              ],
              [
                9.739191852103362,
                52.37496599340767
              ],
              [
                9.738995588522368,
                52.375022883390905
              ]
            ]
          ]
        }
      },
      {
        "type": "Feature",
        "properties": {
          "id": "b4",
          "kind": "building"
        },
        "geometry": {
          "type": "Polygon",
          "coordinates": [
            [
              [
                9.740201360296714,
                52.37785849361346
              ],
              [
                9.739936050465426,
                52.377991148529105
              ],
              [
                9.739756046437025,
                52.37785697934564
              ],
              [
                9.740021356268313,
                52.37772432442999
              ],
              [
                9.740201360296714,
                52.37785849361346
              ]
            ]
          ]
        }
      },
      {
        "type": "Feature",
        "properties": {
          "id": "b5",
          "kind": "building"
        },
        "geometry": {
          "type": "Polygon",
          "coordinates": [
            [
              [
                9.739044444602648,
                52.378360942283074
              ],
              [
                9.73886795339972,
                52.378441165557135
              ],
              [
                9.738747757581521,
                52.37834261647232
              ],
              [
                9.73892424878445,
                52.378262393198256
              ],
              [
                9.739044444602648,
                52.378360942283074
              ]
            ]
          ]
        }
      },
      {
        "type": "Feature",
        "properties": {
          "id": "b6",
          "kind": "building"
        },
        "geometry": {
          "type": "Polygon",
          "coordinates": [
            [
              [
                9.73854666665447,
                52.37792218131386
              ],
              [
                9.73832210668033,
                52.37802425402938
              ],
              [
                9.738158544103607,
                52.377890148346765
              ],
              [
                9.738383104077746,
                52.37778807563125
              ],
              [
                9.73854666665447,
                52.37792218131386
              ]
            ]
          ]
        }
      },
      {
        "type": "Feature",
        "properties": {
          "id": "b7",
          "kind": "building"
        },
        "geometry": {
          "type": "Polygon",
          "coordinates": [
            [
              [
                9.73800938769078,
                52.37889280505566
              ],
              [
                9.737684757980178,
                52.37902806743508
              ],
              [
                9.7375181310452,
                52.37887902943849
              ],
              [
                9.737842760755802,
                52.37874376705907
              ],
              [
                9.73800938769078,
                52.37889280505566
              ]
            ]
          ]
        }
      },
      {
        "type": "Feature",
        "properties": {
          "id": "b8",
          "kind": "building"
        },
        "geometry": {
          "type": "Polygon",
          "coordinates": [
            [
              [
                9.736848801795224,
                52.37941776363337
              ],
              [
                9.736508467775911,
                52.37955956947475
              ],
              [
                9.736338557057222,
                52.37940759432669
              ],
              [
                9.736678891076535,
                52.37926578848531
              ],
              [
                9.736848801795224,
                52.37941776363337
              ]
            ]
          ]
        }
      },
      {
        "type": "Feature",
        "properties": {
          "id": "b9",
          "kind": "building"
        },
        "geometry": {
          "type": "Polygon",
          "coordinates": [
            [
              [
                9.741442479254022,
                52.376580643116526
              ],
              [
                9.741619159465534,
                52.37644813295789
              ],
              [
                9.741847846669245,
                52.37656177032355
              ],
              [
                9.741671166457733,
                52.376694280482184
              ],
              [
                9.741442479254022,
                52.376580643116526
              ]
            ]
          ]
        }
      },
      {
        "type": "Feature",
        "properties": {
          "id": "b10",
          "kind": "building"
        },
        "geometry": {
          "type": "Polygon",
          "coordinates": [
            [
              [
                9.738715349086,
                52.37478907655689
              ],
              [
                9.738470757685569,
                52.37472792870678
              ],
              [
                9.738560440568403,
                52.37459423526372
              ],
              [
                9.738805031968834,
                52.374655383113826
              ],
              [
                9.738715349086,
                52.37478907655689
              ]
            ]
          ]
        }
      },
      {
        "type": "Feature",
        "properties": {
          "id": "b11",
          "kind": "building"
        },
        "geometry": {
          "type": "Polygon",
          "coordinates": [
            [
              [
                9.739051423131185,
                52.37432630384402
              ],
              [
                9.738762913803578,
                52.37425417651212
              ],
              [
                9.738864086313603,
                52.374103355075725
              ],
              [
                9.73915259564121,
                52.37417548240763
              ],
              [
                9.739051423131185,
                52.37432630384402
              ]
            ]
          ]
        }
      },
      {
        "type": "Feature",
        "properties": {
          "id": "b12",
          "kind": "building"
        },
        "geometry": {
          "type": "Polygon",
          "coordinates": [
            [
              [
                9.73784734918828,
                52.374664471867675
              ],
              [
                9.737474690403598,
                52.3745609555386
              ],
              [
                9.737563785672018,
                52.37444141981966
              ],
              [
                9.7379364444567,
                52.37454493614874
              ],
              [
                9.73784734918828,
                52.374664471867675
              ]
            ]
          ]
        }
      },
      {
        "type": "Feature",
        "properties": {
          "id": "b13",
          "kind": "building"
        },
        "geometry": {
          "type": "Polygon",
          "coordinates": [
            [
              [
                9.738266566648344,
                52.374105530373406
              ],
              [
                9.737889577277576,
                52.37400081110375
              ],
              [
                9.738032491387797,
                52.373809068700204
              ],
              [
                9.738409480758564,
                52.37391378796986
              ],
              [
                9.738266566648344,
                52.374105530373406
              ]
            ]
          ]
        }
      },
      {
        "type": "Feature",
        "properties": {
          "id": "b14",
          "kind": "building"
        },
        "geometry": {
          "type": "Polygon",
          "coordinates": [
            [
              [
                9.734689996379005,
                52.373729740214124
              ],
              [
                9.734442108117959,
                52.37366776814886
              ],
              [
                9.73450374616147,
                52.37357588213896
              ],
              [
                9.734751634422517,
                52.37363785420422
              ],
              [
                9.734689996379005,
                52.373729740214124
              ]
            ]
          ]
        }
      },
      {
        "type": "Feature",
        "properties": {
          "id": "b15",
          "kind": "building"
        },
        "geometry": {
          "type": "Polygon",
          "coordinates": [
            [
              [
                9.735075310626106,
                52.373212910103234
              ],
              [
                9.734761276232632,
                52.37313440150486
              ],
              [
                9.734891711624178,
                52.37293995685677
              ],
              [
                9.735205746017652,
                52.37301846545514
              ],
              [
                9.735075310626106,
                52.373212910103234
              ]
            ]
          ]
        }
      },
      {
        "type": "Feature",
        "properties": {
          "id": "b16",
          "kind": "building"
        },
        "geometry": {
          "type": "Polygon",
          "coordinates": [
            [
              [
                9.733594551953697,
                52.37351945932586
              ],
              [
                9.73325554573399,
                52.373462958289245
              ],
              [
                9.73333224369383,
                52.373291453750085
              ],
              [
                9.733671249913538,
                52.3733479547867
              ],
              [
                9.733594551953697,
                52.37351945932586
              ]
            ]
          ]
        }
      },
      {
        "type": "Feature",
        "properties": {
          "id": "b17",
          "kind": "building"
        },
        "geometry": {
          "type": "Polygon",
          "coordinates": [
            [
              [
                9.732793095546718,
                52.37350162050377
              ],
              [
                9.732395736085392,
                52.37356784708066
              ],
              [
                9.732312908096478,
                52.37338263516502
              ],
              [
                9.732710267557804,
                52.37331640858813
              ],
              [
                9.732793095546718,
                52.37350162050377
              ]
            ]
          ]
        }
      },
      {
        "type": "Feature",
        "properties": {
          "id": "b18",
          "kind": "building"
        },
        "geometry": {
          "type": "Polygon",
          "coordinates": [
            [
              [
                9.73946882562618,
                52.37362654321394
              ],
              [
                9.739569425373551,
                52.373505823517085
              ],
              [
                9.739749286949944,
                52.37356168310223
              ],
              [
                9.739648687202573,
                52.37368240279908
              ],
              [
                9.73946882562618,
                52.37362654321394
              ]
            ]
          ]
        }
      },
      {
        "type": "Feature",
        "properties": {
          "id": "b19",
          "kind": "building"
        },
        "geometry": {
          "type": "Polygon",
          "coordinates": [
            [
              [
                9.742154463723537,
                52.37074295919912
              ],
              [
                9.742224816625306,
                52.37060225339558
              ],
              [
                9.742425781864934,
                52.37063970164375
              ],
              [
                9.742355428963165,
                52.37078040744729
              ],
              [
                9.742154463723537,
                52.37074295919912
              ]
            ]
          ]
        }
      },
      {
        "type": "Feature",
        "properties": {
          "id": "b20",
          "kind": "building"
        },
        "geometry": {
          "type": "Polygon",
          "coordinates": [
            [
              [
                9.7349538348688,
                52.37311301345148
              ],
              [
                9.73516134835129,
                52.372967754013736
              ],
              [
                9.735353091552017,
                52.373069839144456
              ],
              [
                9.735145578069528,
                52.3732150985822
              ],
              [
                9.7349538348688,
                52.37311301345148
              ]
            ]
          ]
        }
      },
      {
        "type": "Feature",
        "properties": {
          "id": "b21",
          "kind": "building"
        },
        "geometry": {
          "type": "Polygon",
          "coordinates": [
            [
              [
                9.737219604201163,
                52.37039368309084
              ],
              [
                9.737370407592081,
                52.370303201056295
              ],
              [
                9.73761138403634,
                52.37045288109887
              ],
              [
                9.737460580645422,
                52.370543363133415
              ],
              [
                9.737219604201163,
                52.37039368309084
              ]
            ]
          ]
        }
      },
      {
        "type": "Feature",
        "properties": {
          "id": "b22",
          "kind": "building"
        },
        "geometry": {
          "type": "Polygon",
          "coordinates": [
            [
              [
                9.737804448546623,
                52.370810273283006
              ],
              [
                9.738042580413545,
                52.37066739416285
              ],
              [
                9.738159666348192,
                52.37074012088822
              ],
              [
                9.73792153448127,
                52.37088300000838
              ],
              [
                9.737804448546623,
                52.370810273283006
              ]
            ]
          ]
        }
      },
      {
        "type": "Feature",
        "properties": {
          "id": "b23",
          "kind": "building"
        },
        "geometry": {
          "type": "Polygon",
          "coordinates": [
            [
              [
                9.738069145888659,
                52.36977693845114
              ],
              [
                9.738385769991835,
                52.36961862639955
              ],
              [
                9.738572717293255,
                52.36975797087426
              ],
              [
                9.73825609319008,
                52.36991628292585
              ],
              [
                9.738069145888659,
                52.36977693845114
              ]
            ]
          ]
        }
      },
      {
        "type": "Feature",
        "properties": {
          "id": "b24",
          "kind": "building"
        },
        "geometry": {
          "type": "Polygon",
          "coordinates": [
            [
              [
                9.738214135359446,
                52.369364669790656
              ],
              [
                9.737881230355972,
                52.36922199621774
              ],
              [
                9.738062830979846,
                52.36906407711126
              ],
              [
                9.73839573598332,
                52.36920675068418
              ],
              [
                9.738214135359446,
                52.369364669790656
              ]
            ]
          ]
        }
      },
      {
        "type": "Feature",
        "properties": {
          "id": "b25",
          "kind": "building"
        },
        "geometry": {
          "type": "Polygon",
          "coordinates": [
            [
              [
                9.73885956781621,
                52.36872512145735
              ],
              [
                9.738647268398058,
                52.36863413599244
              ],
              [
                9.738797165940912,
                52.36850378574625
              ],
              [
                9.739009465359064,
                52.368594771211164
              ],
              [
                9.73885956781621,
                52.36872512145735
              ]
            ]
          ]
        }
      },
      {
        "type": "Feature",
        "properties": {
          "id": "b26",
          "kind": "building"
        },
        "geometry": {
          "type": "Polygon",
          "coordinates": [
            [
              [
                9.737370256957462,
                52.36695230774841
              ],
              [
                9.737323289928213,
                52.36676443963142
              ],
              [
                9.737660494852602,
                52.36673302192526
              ],
              [
                9.73770746188185,
                52.36692089004226
              ],
              [
                9.737370256957462,
                52.36695230774841
              ]
            ]
          ]
        }
      },
      {
        "type": "Feature",
        "properties": {
          "id": "b27",
          "kind": "building"
        },
        "geometry": {
          "type": "Polygon",
          "coordinates": [
            [
              [
                9.735998860714572,
                52.36614200852121
              ],
              [
                9.735963488868949,
                52.36596514929309
              ],
              [
                9.736166021423154,
                52.36595005317126
              ],
              [
                9.736201393268777,
                52.36612691239938
              ],
              [
                9.735998860714572,
                52.36614200852121
              ]
            ]
          ]
        }
      },
      {
        "type": "Feature",
        "properties": {
          "id": "b28",
          "kind": "building"
        },
        "geometry": {
          "type": "Polygon",
          "coordinates": [
            [
              [
                9.735575533220112,
                52.36367819343293
              ],
              [
                9.735523145464295,
                52.36343371723912
              ],
              [
                9.735774586812697,
                52.36341363692637
              ],
              [
                9.735826974568514,
                52.36365811312018
              ],
              [
                9.735575533220112,
                52.36367819343293
              ]
            ]
          ]
        }
      },
      {
        "type": "Feature",
        "properties": {
          "id": "b29",
          "kind": "building"
        },
        "geometry": {
          "type": "Polygon",
          "coordinates": [
            [
              [
                9.736673198189441,
                52.363535765100806
              ],
              [
                9.73664388747494,
                52.363398981766466
              ],
              [
                9.736929681693676,
                52.36337615800525
              ],
              [
                9.736958992408177,
                52.36351294133959
              ],
              [
                9.736673198189441,
                52.363535765100806
              ]
            ]
          ]
        }
      },
      {
        "type": "Feature",
        "properties": {
          "id": "b30",
          "kind": "building"
        },
        "geometry": {
          "type": "Polygon",
          "coordinates": [
            [
              [
                9.735304615018974,
                52.36232344949308
              ],
              [
                9.735251238768296,
                52.36209215240681
              ],
              [
                9.735502069956949,
                52.36207057993078
              ],
              [
                9.735555446207627,
                52.36230187701705
              ],
              [
                9.735304615018974,
                52.36232344949308
              ]
            ]
          ]
        }
      },
      {
        "type": "Feature",
        "properties": {
          "id": "b31",
          "kind": "building"
        },
        "geometry": {
          "type": "Polygon",
          "coordinates": [
            [
              [
                9.735075656017246,
                52.361186650593
              ],
              [
                9.735004578481165,
                52.36094972547273
              ],
              [
                9.735346624599652,
                52.360911482954904
              ],
              [
                9.735417702135733,
                52.361148408075174
              ],
              [
                9.735075656017246,
                52.361186650593
              ]
            ]
          ]
        }
      },
      {
        "type": "Feature",
        "properties": {
          "id": "b32",
          "kind": "building"
        },
        "geometry": {
          "type": "Polygon",
          "coordinates": [
            [
              [
                9.734723941869955,
                52.36076784152685
              ],
              [
                9.734366007513733,
                52.36069625465561
              ],
              [
                9.734426525180048,
                52.360583484875576
              ],
              [
                9.73478445953627,
                52.36065507174682
              ],
              [
                9.734723941869955,
                52.36076784152685
              ]
            ]
          ]
        }
      },
      {
        "type": "Feature",
        "properties": {
          "id": "b33",
          "kind": "building"
        },
        "geometry": {
          "type": "Polygon",
          "coordinates": [
            [
              [
                9.73353202866469,
                52.35978781035495
              ],
              [
                9.733321012365971,
                52.35971747158871
              ],
              [
                9.733474352822498,
                52.35954602906022
              ],
              [
                9.733685369121217,
                52.35961636782646
              ],
              [
                9.73353202866469,
                52.35978781035495
              ]
            ]
          ]
        }
      },
      {
        "type": "Feature",
        "properties": {
          "id": "b34",
          "kind": "building"
        },
        "geometry": {
          "type": "Polygon",
          "coordinates": [
            [
              [
                9.731576322555663,
                52.359827939593885
              ],
              [
                9.731323103339877,
                52.35974353318862
              ],
              [
                9.731450972031476,
                52.35960056940529
              ],
              [
                9.731704191247262,
                52.35968497581055
              ],
              [
                9.731576322555663,
                52.359827939593885
              ]
            ]
          ]
        }
      },
      {
        "type": "Feature",
        "properties": {
          "id": "b35",
          "kind": "building"
        },
        "geometry": {
          "type": "Polygon",
          "coordinates": [
            [
              [
                9.730576130966872,
                52.358755402407084
              ],
              [
                9.730313969313913,
                52.358633060302374
              ],
              [
                9.730520734214002,
                52.358467936153716
              ],
              [
                9.73078289586696,
                52.358590278258426
              ],
              [
                9.730576130966872,
                52.358755402407084
              ]
            ]
          ]
        }
      },
      {
        "type": "Feature",
        "properties": {
          "id": "b36",
          "kind": "building"
        },
        "geometry": {
          "type": "Polygon",
          "coordinates": [
            [
              [
                9.7458299478805,
                52.369668027174086
              ],
              [
                9.746125371005094,
                52.36971347688556
              ],
              [
                9.746079689392902,
                52.36982413807549
              ],
              [
                9.745784266268307,
                52.369778688364015
              ],
              [
                9.7458299478805,
                52.369668027174086
              ]
            ]
          ]
        }
      },
      {
        "type": "Feature",
        "properties": {
          "id": "b37",
          "kind": "building"
        },
        "geometry": {
          "type": "Polygon",
          "coordinates": [
            [
              [
                9.745620980581105,
                52.3701627260337
              ],
              [
                9.745925341294896,
                52.3702095507589
              ],
              [
                9.745858517568877,
                52.37037142755531
              ],
              [
                9.745554156855086,
                52.37032460283011
              ],
              [
                9.745620980581105,
                52.3701627260337
              ]
            ]
          ]
        }
      },
      {
        "type": "Feature",
        "properties": {
          "id": "b38",
          "kind": "building"
        },
        "geometry": {
          "type": "Polygon",
          "coordinates": [
            [
              [
                9.74716327289772,
                52.36986420957906
              ],
              [
                9.747558081110427,
                52.369955319166614
              ],
              [
                9.74746691555215,
                52.37010254819634
              ],
              [
                9.747072107339445,
                52.37001143860879
              ],
              [
                9.74716327289772,
                52.36986420957906
              ]
            ]
          ]
        }
      },
      {
        "type": "Feature",
        "properties": {
          "id": "b39",
          "kind": "building"
        },
        "geometry": {
          "type": "Polygon",
          "coordinates": [
            [
              [
                9.746921433624575,
                52.37043748845895
              ],
              [
                9.747118252875861,
                52.370482908286164
              ],
              [
                9.747031248811002,
                52.3706234166568
              ],
              [
                9.746834429559716,
                52.37057799682958
              ],
              [
                9.746921433624575,
                52.37043748845895
              ]
            ]
          ]
        }
      },
      {
        "type": "Feature",
        "properties": {
          "id": "b40",
          "kind": "building"
        },
        "geometry": {
          "type": "Polygon",
          "coordinates": [
            [
              [
                9.742890800188766,
                52.367502868833036
              ],
              [
                9.74297116041285,
                52.3673153616435
              ],
              [
                9.743261960461,
                52.36736180870522
              ],
              [
                9.743181600236916,
                52.367549315894756
              ],
              [
                9.742890800188766,
                52.367502868833036
              ]
            ]
          ]
        }
      },
      {
        "type": "Feature",
        "properties": {
          "id": "b41",
          "kind": "building"
        },
        "geometry": {
          "type": "Polygon",
          "coordinates": [
            [
              [
                9.743787404194073,
                52.367649407958076
              ],
              [
                9.74387043749153,
                52.36745566359734
              ],
              [
                9.744129822638744,
                52.367497093019445
              ],
              [
                9.744046789341287,
                52.36769083738018
              ],
              [
                9.743787404194073,
                52.367649407958076
              ]
            ]
          ]
        }
      },
      {
        "type": "Feature",
        "properties": {
          "id": "b42",
          "kind": "building"
        },
        "geometry": {
          "type": "Polygon",
          "coordinates": [
            [
              [
                9.74354741067501,
                52.36611835882774
              ],
              [
                9.743632943729093,
                52.36591878170155
              ],
              [
                9.743835523882368,
                52.365951138136644
              ],
              [
                9.743749990828285,
                52.36615071526283
              ],
              [
                9.74354741067501,
                52.36611835882774
              ]
            ]
          ]
        }
      },
      {
        "type": "Feature",
        "properties": {
          "id": "b43",
          "kind": "building"
        },
        "geometry": {
          "type": "Polygon",
          "coordinates": [
            [
              [
                9.744008563927267,
                52.364696288464486
              ],
              [
                9.744094182392653,
                52.36449651204525
              ],
              [
                9.744391422650217,
                52.36454398774781
              ],
              [
                9.744305804184831,
                52.364743764167045
              ],
              [
                9.744008563927267,
                52.364696288464486
              ]
            ]
          ]
        }
      },
      {
        "type": "Feature",
        "properties": {
          "id": "b44",
          "kind": "building"
        },
        "geometry": {
          "type": "Polygon",
          "coordinates": [
            [
              [
                9.745015924194572,
                52.36486095920961
              ],
              [
                9.745104569875421,
                52.36465411928763
              ],
              [
                9.745354722403686,
                52.36469407406065
              ],
              [
                9.745266076722837,
                52.36490091398263
              ],
              [
                9.745015924194572,
                52.36486095920961
              ]
            ]
          ]
        }
      },
      {
        "type": "Feature",
        "properties": {
          "id": "b45",
          "kind": "building"
        },
        "geometry": {
          "type": "Polygon",
          "coordinates": [
            [
              [
                9.739113857924371,
                52.37501504448033
              ],
              [
                9.739298502234949,
                52.37521122906031
              ],
              [
                9.73901276944465,
                52.37531145305302
              ],
              [
                9.738828125134074,
                52.37511526847304
              ],
              [
                9.739113857924371,
                52.37501504448033
              ]
            ]
          ]
        }
      },
      {
        "type": "Feature",
        "properties": {
          "id": "b46",
          "kind": "building"
        },
        "geometry": {
          "type": "Polygon",
          "coordinates": [
            [
              [
                9.741773685393854,
                52.377982673631095
              ],
              [
                9.741976136380407,
                52.378205369716305
              ],
              [
                9.741808774641099,
                52.37826207245716
              ],
              [
                9.741606323654546,
                52.37803937637195
              ],
              [
                9.741773685393854,
                52.377982673631095
              ]
            ]
          ]
        }
      },
      {
        "type": "Feature",
        "properties": {
          "id": "b47",
          "kind": "building"
        },
        "geometry": {
          "type": "Polygon",
          "coordinates": [
            [
              [
                9.743918151395864,
                52.37882207140581
              ],
              [
                9.744035192540206,
                52.37894975265418
              ],
              [
                9.743746568141624,
                52.37904835449811
              ],
              [
                9.743629526997282,
                52.37892067324974
              ],
              [
                9.743918151395864,
                52.37882207140581
              ]
            ]
          ]
        }
      },
      {
        "type": "Feature",
        "properties": {
          "id": "b48",
          "kind": "building"
        },
        "geometry": {
          "type": "Polygon",
          "coordinates": [
            [
              [
                9.74295698674954,
                52.37908376486992
              ],
              [
                9.743167102257795,
                52.37931298178801
              ],
              [
                9.742959369427869,
                52.3793839489002
              ],
              [
                9.742749253919614,
                52.379154731982105
              ],
              [
                9.74295698674954,
                52.37908376486992
              ]
            ]
          ]
        }
      },
      {
        "type": "Feature",
        "properties": {
          "id": "b49",
          "kind": "building"
        },
        "geometry": {
          "type": "Polygon",
          "coordinates": [
            [
              [
                9.745065548708105,
                52.38001409981318
              ],
              [
                9.745275012115616,
                52.38022356322069
              ],
              [
                9.745110494898281,
                52.38028487612827
              ],
              [
                9.74490103149077,
                52.380075412720764
              ],
              [
                9.745065548708105,
                52.38001409981318
              ]
            ]
          ]
        }
      },
      {
        "type": "Feature",
        "properties": {
          "id": "b50",
          "kind": "building"
        },
        "geometry": {
          "type": "Polygon",
          "coordinates": [
            [
              [
                9.744117867950148,
                52.38040882241433
              ],
              [
                9.744266811520182,
                52.38055776598437
              ],
              [
                9.744096697528825,
                52.380621164719166
              ],
              [
                9.74394775395879,
                52.38047222114913
              ],
              [
                9.744117867950148,
                52.38040882241433
              ]
            ]
          ]
        }
      },
      {
        "type": "Feature",
        "properties": {
          "id": "b51",
          "kind": "building"
        },
        "geometry": {
          "type": "Polygon",
          "coordinates": [
            [
              [
                9.745524358308405,
                52.381651038146124
              ],
              [
                9.745699669250985,
                52.381826349088705
              ],
              [
                9.745489600140402,
                52.381904638450585
              ],
              [
                9.745314289197822,
                52.381729327508005
              ],
              [
                9.745524358308405,
                52.381651038146124
              ]
            ]
          ]
        }
      },
      {
        "type": "Feature",
        "properties": {
          "id": "b52",
          "kind": "building"
        },
        "geometry": {
          "type": "Polygon",
          "coordinates": [
            [
              [
                9.74864741615692,
                52.3831693277738
              ],
              [
                9.748863242100608,
                52.3831398969633
              ],
              [
                9.748939608062187,
                52.38334860626611
              ],
              [
                9.7487237821185,
                52.38337803707661
              ],
              [
                9.74864741615692,
                52.3831693277738
              ]
            ]
          ]
        }
      },
      {
        "type": "Feature",
        "properties": {
          "id": "b53",
          "kind": "building"
        },
        "geometry": {
          "type": "Polygon",
          "coordinates": [
            [
              [
                9.748894323497456,
                52.38385747657811
              ],
              [
                9.749119452772872,
                52.38382677713146
              ],
              [
                9.749165813467275,
                52.383953481595164
              ],
              [
                9.74894068419186,
                52.38398418104181
              ],
              [
                9.748894323497456,
                52.38385747657811
              ]
            ]
          ]
        }
      },
      {
        "type": "Feature",
        "properties": {
          "id": "b54",
          "kind": "building"
        },
        "geometry": {
          "type": "Polygon",
          "coordinates": [
            [
              [
                9.753385824215458,
                52.38225715200978
              ],
              [
                9.753634213330514,
                52.382197538622165
              ],
              [
                9.753703889517224,
                52.38230573524098
              ],
              [
                9.753455500402168,
                52.382365348628596
              ],
              [
                9.753385824215458,
                52.38225715200978
              ]
            ]
          ]
        }
      },
      {
        "type": "Feature",
        "properties": {
          "id": "b55",
          "kind": "building"
        },
        "geometry": {
          "type": "Polygon",
          "coordinates": [
            [
              [
                9.753728407695064,
                52.38287591201544
              ],
              [
                9.754073603031626,
                52.38279306513467
              ],
              [
                9.754139086438709,
                52.38289475099851
              ],
              [
                9.753793891102147,
                52.38297759787928
              ],
              [
                9.753728407695064,
                52.38287591201544
              ]
            ]
          ]
        }
      },
      {
        "type": "Feature",
        "properties": {
          "id": "b56",
          "kind": "building"
        },
        "geometry": {
          "type": "Polygon",
          "coordinates": [
            [
              [
                9.756272580074128,
                52.3821433698229
              ],
              [
                9.756475328734856,
                52.382086600197894
              ],
              [
                9.756617642429259,
                52.382276021674656
              ],
              [
                9.75641489376853,
                52.38233279129966
              ],
              [
                9.756272580074128,
                52.3821433698229
              ]
            ]
          ]
        }
      },
      {
        "type": "Feature",
        "properties": {
          "id": "b57",
          "kind": "building"
        },
        "geometry": {
          "type": "Polygon",
          "coordinates": [
            [
              [
                9.75838174015279,
                52.38091646300925
              ],
              [
                9.758591813647753,
                52.38086604537046
              ],
              [
                9.758710962741697,
                52.38105106595939
              ],
              [
                9.758500889246735,
                52.38110148359818
              ],
              [
                9.75838174015279,
                52.38091646300925
              ]
            ]
          ]
        }
      },
      {
        "type": "Feature",
        "properties": {
          "id": "b58",
          "kind": "building"
        },
        "geometry": {
          "type": "Polygon",
          "coordinates": [
            [
              [
                9.74191618569678,
                52.37688212444963
              ],
              [
                9.742167079018259,
                52.37696575555679
              ],
              [
                9.742038806585885,
                52.377109170743104
              ],
              [
                9.741787913264407,
                52.377025539635945
              ],
              [
                9.74191618569678,
                52.37688212444963
              ]
            ]
          ]
        }
      },
      {
        "type": "Feature",
        "properties": {
          "id": "b59",
          "kind": "building"
        },
        "geometry": {
          "type": "Polygon",
          "coordinates": [
            [
              [
                9.744461605732802,
                52.37659582845278
              ],
              [
                9.744665310160324,
                52.37668494913982
              ],
              [
                9.74451812012725,
                52.37681033278804
              ],
              [
                9.744314415699728,
                52.376721212100996
              ],
              [
                9.744461605732802,
                52.37659582845278
              ]
            ]
          ]
        }
      },
      {
        "type": "Feature",
        "properties": {
          "id": "b60",
          "kind": "building"
        },
        "geometry": {
          "type": "Polygon",
          "coordinates": [
            [
              [
                9.743880275028665,
                52.37701337675861
              ],
              [
                9.74420443955168,
                52.377155198737434
              ],
              [
                9.744061994565325,
                52.37727654032345
              ],
              [
                9.74373783004231,
                52.37713471834463
              ],
              [
                9.743880275028665,
                52.37701337675861
              ]
            ]
          ]
        }
      },
      {
        "type": "Feature",
        "properties": {
          "id": "b61",
          "kind": "building"
        },
        "geometry": {
          "type": "Polygon",
          "coordinates": [
            [
              [
                9.744892436489145,
                52.373420483882335
              ],
              [
                9.745132928281048,
                52.37339376257212
              ],
              [
                9.745164806310918,
                52.37350068641012
              ],
              [
                9.744924314519015,
                52.37352740772033
              ],
              [
                9.744892436489145,
                52.373420483882335
              ]
            ]
          ]
        }
      },
      {
        "type": "Feature",
        "properties": {
          "id": "b62",
          "kind": "building"
        },
        "geometry": {
          "type": "Polygon",
          "coordinates": [
            [
              [
                9.744998983973119,
                52.37398145621926
              ],
              [
                9.745356982261502,
                52.37394167863167
              ],
              [
                9.745395623674593,
                52.374071287902076
              ],
              [
                9.74503762538621,
                52.37411106548967
              ],
              [
                9.744998983973119,
                52.37398145621926
              ]
            ]
          ]
        }
      },
      {
        "type": "Feature",
        "properties": {
          "id": "b63",
          "kind": "building"
        },
        "geometry": {
          "type": "Polygon",
          "coordinates": [
            [
              [
                9.734881474663531,
                52.373702003173946
              ],
              [
                9.735207477732116,
                52.373748575040885
              ],
              [
                9.735159941980733,
                52.37387258568397
              ],
              [
                9.734833938912148,
                52.37382601381703
              ],
              [
                9.734881474663531,
                52.373702003173946
              ]
            ]
          ]
        }
      },
      {
        "type": "Feature",
        "properties": {
          "id": "b64",
          "kind": "building"
        },
        "geometry": {
          "type": "Polygon",
          "coordinates": [
            [
              [
                9.735659201718416,
                52.37317329128121
              ],
              [
                9.73594326961636,
                52.37313778279397
              ],
              [
                9.735975779758466,
                52.37323471082963
              ],
              [
                9.735691711860522,
                52.37327021931687
              ],
              [
                9.735659201718416,
                52.37317329128121
              ]
            ]
          ]
        }
      },
      {
        "type": "Feature",
        "properties": {
          "id": "b65",
          "kind": "building"
        },
        "geometry": {
          "type": "Polygon",
          "coordinates": [
            [
              [
                9.736286871593794,
                52.37300875595256
              ],
              [
                9.736516312979113,
                52.37294320127104
              ],
              [
                9.736625852895202,
                52.37308608441733
              ],
              [
                9.736396411509883,
                52.37315163909885
              ],
              [
                9.736286871593794,
                52.37300875595256
              ]
            ]
          ]
        }
      },
      {
        "type": "Feature",
        "properties": {
          "id": "b66",
          "kind": "building"
        },
        "geometry": {
          "type": "Polygon",
          "coordinates": [
            [
              [
                9.74089044100214,
                52.3736015763504
              ],
              [
                9.740512760508572,
                52.37356380830104
              ],
              [
                9.740559259153905,
                52.373390515366104
              ],
              [
                9.740936939647472,
                52.373428283415464
              ],
              [
                9.74089044100214,
                52.3736015763504
              ]
            ]
          ]
        }
      },
      {
        "type": "Feature",
        "properties": {
          "id": "b67",
          "kind": "building"
        },
        "geometry": {
          "type": "Polygon",
          "coordinates": [
            [
              [
                9.748658779644314,
                52.380053916225776
              ],
              [
                9.748813906152142,
                52.380209042733604
              ],
              [
                9.748622502967988,
                52.38028037560643
              ],
              [
                9.74846737646016,
                52.380125249098604
              ],
              [
                9.748658779644314,
                52.380053916225776
              ]
            ]
          ]
        }
      },
      {
        "type": "Feature",
        "properties": {
          "id": "b68",
          "kind": "building"
        },
        "geometry": {
          "type": "Polygon",
          "coordinates": [
            [
              [
                9.747829476282798,
                52.38033480820574
              ],
              [
                9.74802565518301,
                52.38053098710595
              ],
              [
                9.747782480600273,
                52.38062161434217
              ],
              [
                9.74758630170006,
                52.38042543544196
              ],
              [
                9.747829476282798,
                52.38033480820574
              ]
            ]
          ]
        }
      },
      {
        "type": "Feature",
        "properties": {
          "id": "b69",
          "kind": "building"
        },
        "geometry": {
          "type": "Polygon",
          "coordinates": [
            [
              [
                9.74904361190797,
                52.3817435950248
              ],
              [
                9.749227912817746,
                52.38192789593458
              ],
              [
                9.748969940358153,
                52.38202403810031
              ],
              [
                9.748785639448377,
                52.38183973719053
              ],
              [
                9.74904361190797,
                52.3817435950248
              ]
            ]
          ]
        }
      },
      {
        "type": "Feature",
        "properties": {
          "id": "b70",
          "kind": "building"
        },
        "geometry": {
          "type": "Polygon",
          "coordinates": [
            [
              [
                9.752742865792008,
                52.38420290107086
              ],
              [
                9.752935262618834,
                52.38439529789768
              ],
              [
                9.75275956533195,
                52.384460777436466
              ],
              [
                9.752567168505124,
                52.38426838060964
              ],
              [
                9.752742865792008,
                52.38420290107086
              ]
            ]
          ]
        }
      },
      {
        "type": "Feature",
        "properties": {
          "id": "b71",
          "kind": "building"
        },
        "geometry": {
          "type": "Polygon",
          "coordinates": [
            [
              [
                9.731519841279995,
                52.37195728574684
              ],
              [
                9.731254500093101,
                52.37181440972313
              ],
              [
                9.731440812066184,
                52.37168545815316
              ],
              [
                9.731706153253079,
                52.37182833417687
              ],
              [
                9.731519841279995,
                52.37195728574684
              ]
            ]
          ]
        }
      },
      {
        "type": "Feature",
        "properties": {
          "id": "b72",
          "kind": "building"
        },
        "geometry": {
          "type": "Polygon",
          "coordinates": [
            [
              [
                9.729503992087261,
                52.371684902879544
              ],
              [
                9.729348909530087,
                52.37160139688722
              ],
              [
                9.729556919102341,
                52.37145742782035
              ],
              [
                9.729712001659516,
                52.371540933812675
              ],
              [
                9.729503992087261,
                52.371684902879544
              ]
            ]
          ]
        }
      },
      {
        "type": "Feature",
        "properties": {
          "id": "b73",
          "kind": "building"
        },
        "geometry": {
          "type": "Polygon",
          "coordinates": [
            [
              [
                9.730200924287386,
                52.37126032205741
              ],
              [
                9.72995192755972,
                52.37112624689636
              ],
              [
                9.730142424525988,
                52.37099439877909
              ],
              [
                9.730391421253655,
                52.37112847394014
              ],
              [
                9.730200924287386,
                52.37126032205741
              ]
            ]
          ]
        }
      },
      {
        "type": "Feature",
        "properties": {
          "id": "b74",
          "kind": "building"
        },
        "geometry": {
          "type": "Polygon",
          "coordinates": [
            [
              [
                9.728902513206124,
                52.370555493851285
              ],
              [
                9.728740896664206,
                52.370461217535166
              ],
              [
                9.728887814971747,
                52.370367353400795
              ],
              [
                9.729049431513666,
                52.370461629716914
              ],
              [
                9.728902513206124,
                52.370555493851285
              ]
            ]
          ]
        }
      },
      {
        "type": "Feature",
        "properties": {
          "id": "b75",
          "kind": "building"
        },
        "geometry": {
          "type": "Polygon",
          "coordinates": [
            [
              [
                9.732663775931766,
                52.37264814007511
              ],
              [
                9.732836165977236,
                52.37244127202054
              ],
              [
                9.733146794971738,
                52.37253774402482
              ],
              [
                9.732974404926267,
                52.37274461207939
              ],
              [
                9.732663775931766,
                52.37264814007511
              ]
            ]
          ]
        }
      },
      {
        "type": "Feature",
        "properties": {
          "id": "b76",
          "kind": "building"
        },
        "geometry": {
          "type": "Polygon",
          "coordinates": [
            [
              [
                9.733429237191654,
                52.37286483948809
              ],
              [
                9.733573783724328,
                52.37269138364888
              ],
              [
                9.7338346206413,
                52.37277239173446
              ],
              [
                9.733690074108626,
                52.37294584757367
              ],
              [
                9.733429237191654,
                52.37286483948809
              ]
            ]
          ]
        }
      },
      {
        "type": "Feature",
        "properties": {
          "id": "b77",
          "kind": "building"
        },
        "geometry": {
          "type": "Polygon",
          "coordinates": [
            [
              [
                9.733159128548023,
                52.3720388703387
              ],
              [
                9.73332115641261,
                52.37184443690119
              ],
              [
                9.733478633032332,
                52.37189334439341
              ],
              [
                9.733316605167746,
                52.37208777783092
              ],
              [
                9.733159128548023,
                52.3720388703387
              ]
            ]
          ]
        }
      },
      {
        "type": "Feature",
        "properties": {
          "id": "b78",
          "kind": "building"
        },
        "geometry": {
          "type": "Polygon",
          "coordinates": [
            [
              [
                9.734465323532506,
                52.37168320285279
              ],
              [
                9.734619344681267,
                52.37149837747428
              ],
              [
                9.73476573846616,
                52.371543842972
              ],
              [
                9.7346117173174,
                52.371728668350514
              ],
              [
                9.734465323532506,
                52.37168320285279
              ]
            ]
          ]
        }
      },
      {
        "type": "Feature",
        "properties": {
          "id": "b79",
          "kind": "building"
        },
        "geometry": {
          "type": "Polygon",
          "coordinates": [
            [
              [
                9.74185625890492,
                52.37231579731193
              ],
              [
                9.742219455923749,
                52.37229309749825
              ],
              [
                9.742241607766553,
                52.37242518763813
              ],
              [
                9.741878410747724,
                52.372447887451806
              ],
              [
                9.74185625890492,
                52.37231579731193
              ]
            ]
          ]
        }
      },
      {
        "type": "Feature",
        "properties": {
          "id": "b80",
          "kind": "building"
        },
        "geometry": {
          "type": "Polygon",
          "coordinates": [
            [
              [
                9.741979134019832,
                52.37290075970256
              ],
              [
                9.742293294061502,
                52.37288112469996
              ],
              [
                9.742312088019052,
                52.37299319196694
              ],
              [
                9.741997927977382,
                52.37301282696954
              ],
              [
                9.741979134019832,
                52.37290075970256
              ]
            ]
          ]
        }
      },
      {
        "type": "Feature",
        "properties": {
          "id": "b81",
          "kind": "building"
        },
        "geometry": {
          "type": "Polygon",
          "coordinates": [
            [
              [
                9.742626376526415,
                52.37230100284925
              ],
              [
                9.743060404010675,
                52.37227387613148
              ],
              [
                9.743095129839562,
                52.37248094421316
              ],
              [
                9.742661102355301,
                52.37250807093093
              ],
              [
                9.742626376526415,
                52.37230100284925
              ]
            ]
          ]
        }
      },
      {
        "type": "Feature",
        "properties": {
          "id": "b82",
          "kind": "building"
        },
        "geometry": {
          "type": "Polygon",
          "coordinates": [
            [
              [
                9.74341740952198,
                52.37219046458429
              ],
              [
                9.743849090773724,
                52.37216348450606
              ],
              [
                9.743874332439164,
                52.372313999077164
              ],
              [
                9.74344265118742,
                52.372340979155396
              ],
              [
                9.74341740952198,
                52.37219046458429
              ]
            ]
          ]
        }
      },
      {
        "type": "Feature",
        "properties": {
          "id": "b83",
          "kind": "building"
        },
        "geometry": {
          "type": "Polygon",
          "coordinates": [
            [
              [
                9.739349911949871,
                52.37076558417705
              ],
              [
                9.739677708274593,
                52.37082704598793
              ],
              [
                9.739622224401225,
                52.37093732834923
              ],
              [
                9.739294428076503,
                52.37087586653835
              ],
              [
                9.739349911949871,
                52.37076558417705
              ]
            ]
          ]
        }
      },
      {
        "type": "Feature",
        "properties": {
          "id": "b84",
          "kind": "building"
        },
        "geometry": {
          "type": "Polygon",
          "coordinates": [
            [
              [
                9.740563900449432,
                52.37036459296771
              ],
              [
                9.740783433924726,
                52.37041947633654
              ],
              [
                9.740662631634253,
                52.37059956058041
              ],
              [
                9.74044309815896,
                52.37054467721158
              ],
              [
                9.740563900449432,
                52.37036459296771
              ]
            ]
          ]
        }
      },
      {
        "type": "Feature",
        "properties": {
          "id": "b85",
          "kind": "building"
        },
        "geometry": {
          "type": "Polygon",
          "coordinates": [
            [
              [
                9.74005972819971,
                52.371007950932906
              ],
              [
                9.740403610763066,
                52.371093921573745
              ],
              [
                9.740325495503544,
                52.37121037075191
              ],
              [
                9.73998161294019,
                52.37112440011107
              ],
              [
                9.74005972819971,
                52.371007950932906
              ]
            ]
          ]
        }
      },
      {
        "type": "Feature",
        "properties": {
          "id": "b86",
          "kind": "building"
        },
        "geometry": {
          "type": "Polygon",
          "coordinates": [
            [
              [
                9.741263023004418,
                52.370682794806285
              ],
              [
                9.741448965525274,
                52.37074477564657
              ],
              [
                9.74137106574604,
                52.370831871612125
              ],
              [
                9.741185123225184,
                52.37076989077184
              ],
              [
                9.741263023004418,
                52.370682794806285
              ]
            ]
          ]
        }
      },
      {
        "type": "Feature",
        "properties": {
          "id": "b87",
          "kind": "building"
        },
        "geometry": {
          "type": "Polygon",
          "coordinates": [
            [
              [
                9.740810579460659,
                52.37114709422448
              ],
              [
                9.741053785591461,
                52.371228162934756
              ],
              [
                9.74096331572,
                52.37132931291087
              ],
              [
                9.740720109589198,
                52.3712482442006
              ],
              [
                9.740810579460659,
                52.37114709422448
              ]
            ]
          ]
        }
      },
      {
        "type": "Feature",
        "properties": {
          "id": "b88",
          "kind": "building"
        },
        "geometry": {
          "type": "Polygon",
          "coordinates": [
            [
              [
                9.743652564547386,
                52.36909817104344
              ],
              [
                9.743804157094019,
                52.368946578496804
              ],
              [
                9.744012200744688,
                52.36902411300252
              ],
              [
                9.743860608198055,
                52.369175705549154
              ],
              [
                9.743652564547386,
                52.36909817104344
              ]
            ]
          ]
        }
      },
      {
        "type": "Feature",
        "properties": {
          "id": "b89",
          "kind": "building"
        },
        "geometry": {
          "type": "Polygon",
          "coordinates": [
            [
              [
                9.742872054090743,
                52.36826406658596
              ],
              [
                9.742477569087432,
                52.368362687836786
              ],
              [
                9.742398153200515,
                52.368244299767404
              ],
              [
                9.742792638203825,
                52.368145678516576
              ],
              [
                9.742872054090743,
                52.36826406658596
              ]
            ]
          ]
        }
      },
      {
        "type": "Feature",
        "properties": {
          "id": "b90",
          "kind": "building"
        },
        "geometry": {
          "type": "Polygon",
          "coordinates": [
            [
              [
                9.742048669569039,
                52.36870504140558
              ],
              [
                9.741919689742666,
                52.368866266188554
              ],
              [
                9.741609890420454,
                52.36877390042881
              ],
              [
                9.741738870246827,
                52.36861267564584
              ],
              [
                9.742048669569039,
                52.36870504140558
              ]
            ]
          ]
        }
      },
      {
        "type": "Feature",
        "properties": {
          "id": "b91",
          "kind": "building"
        },
        "geometry": {
          "type": "Polygon",
          "coordinates": [
            [
              [
                9.741808980729253,
                52.36936130313678
              ],
              [
                9.742036728501928,
                52.36954350135491
              ],
              [
                9.741900527124784,
                52.36960695141948
              ],
              [
                9.74167277935211,
                52.36942475320134
              ],
              [
                9.741808980729253,
                52.36936130313678
              ]
            ]
          ]
        }
      }
    ]
  },
  "areas": {
    "type": "FeatureCollection",
    "features": [
      {
        "type": "Feature",
        "properties": {
          "name": "Ernst-August-Platz",
          "category": "plaza"
        },
        "geometry": {
          "type": "Polygon",
          "coordinates": [
            [
              [
                9.74,
                52.376
              ],
              [
                9.7415,
                52.3761
              ],
              [
                9.7416,
                52.3757
              ],
              [
                9.7401,
                52.3756
              ],
              [
                9.74,
                52.376
              ]
            ]
          ]
        }
      },
      {
        "type": "Feature",
        "properties": {
          "name": "Kröpcke Platz",
          "category": "plaza"
        },
        "geometry": {
          "type": "Polygon",
          "coordinates": [
            [
              [
                9.7384,
                52.3742
              ],
              [
                9.7395,
                52.3743
              ],
              [
                9.7395,
                52.3748
              ],
              [
                9.7384,
                52.3747
              ],
              [
                9.7384,
                52.3742
              ]
            ]
          ]
        }
      },
      {
        "type": "Feature",
        "properties": {
          "name": "Maschsee Nordufer",
          "category": "park"
        },
        "geometry": {
          "type": "Polygon",
          "coordinates": [
            [
              [
                9.7335,
                52.3595
              ],
              [
                9.7375,
                52.3595
              ],
              [
                9.7375,
                52.362
              ],
              [
                9.7335,
                52.362
              ],
              [
                9.7335,
                52.3595
              ]
            ]
          ]
        }
      },
      {
        "type": "Feature",
        "properties": {
          "name": "Opernplatz",
          "category": "plaza"
        },
        "geometry": {
          "type": "Polygon",
          "coordinates": [
            [
              [
                9.74,
                52.3728
              ],
              [
                9.7415,
                52.3729
              ],
              [
                9.7415,
                52.3735
              ],
              [
                9.74,
                52.3734
              ],
              [
                9.74,
                52.3728
              ]
            ]
          ]
        }
      }
    ]
  }
}